{"type": "FeatureCollection", "features": [ {"type": "Feature", "properties": {"norad_id": 66920, "name": "HULIANWANG DIGUI-110", "group": "last-30-days", "lat": 1.3574050628362253, "lon": -103.31643524170714, "alt_km": 884.6885346097624, "timestamp": "2025-12-22T09:53:36.146022+00:00", "meta": {"OBJECT_NAME": "HULIANWANG DIGUI-110", "OBJECT_ID": "2025-285F", "EPOCH": "2025-12-22T05:37:50.342016", "MEAN_MOTION": 14.03682987, "ECCENTRICITY": 0.0005594, "INCLINATION": 50.0106, "RA_OF_ASC_NODE": 78.5465, "ARG_OF_PERICENTER": 321.2579, "MEAN_ANOMALY": 38.7924, "EPHEMERIS_TYPE": 0, "CLASSIFICATION_TYPE": "U", "NORAD_CAT_ID": 66920, "ELEMENT_SET_NO": 999, "REV_AT_EPOCH": 224, "BSTAR": 0.00011981, "MEAN_MOTION_DOT": 3.8e-07, "MEAN_MOTION_DDOT": 0}, "tle": {"line1": "1 66920U 25285F   25356.23461044  .00000038  00000+0  11981-3 0  9993", "line2": "2 66920  50.0106  78.5465 0005594 321.2579  38.7924 14.03682987  2243"}}, "geometry": {"type": "Point", "coordinates": [-103.31643524170714, 1.3574050628362253]}}, {"type": "Feature", "properties": {"norad_id": 66921, "name": "HULIANWANG DIGUI-111", "group": "last-30-days", "lat": -1.8380372596151133, "lon": -100.63806103514648, "alt_km": 885.8933186914419, "timestamp": "2025-12-22T09:53:36.146034+00:00", "meta": {"OBJECT_NAME": "HULIANWANG DIGUI-111", "OBJECT_ID": "2025-285G", "EPOCH": "2025-12-22T05:36:38.308608", "MEAN_MOTION": 14.03632544, "ECCENTRICITY": 0.0006681, "INCLINATION": 50.0122, "RA_OF_ASC_NODE": 78.5453, "ARG_OF_PERICENTER": 325.0157, "MEAN_ANOMALY": 35.0308, "EPHEMERIS_TYPE": 0, "CLASSIFICATION_TYPE": "U", "NORAD_CAT_ID": 66921, "ELEMENT_SET_NO": 999, "REV_AT_EPOCH": 224, "BSTAR": 0.00011446, "MEAN_MOTION_DOT": 2.9e-07, "MEAN_MOTION_DDOT": 0}, "tle": {"line1": "1 66921U 25285G   25356.23377672  .00000029  00000+0  11446-3 0  9993", "line2": "2 66921  50.0122  78.5453 0006681 325.0157  35.0308 14.03632544  2241"}}, "geometry": {"type": "Point", "coordinates": [-100.63806103514648, -1.8380372596151133]}}, {"type": "Feature", "properties": {"norad_id": 66922, "name": "HULIANWANG DIGUI-112", "group": "last-30-days", "lat": -5.91274216012059, "lon": -97.2116891806576, "alt_km": 886.4322997734371, "timestamp": "2025-12-22T09:53:36.146044+00:00", "meta": {"OBJECT_NAME": "HULIANWANG DIGUI-112", "OBJECT_ID": "2025-285H", "EPOCH": "2025-12-22T05:35:07.923840", "MEAN_MOTION": 14.03662573, "ECCENTRICITY": 0.00065, "INCLINATION": 50.0094, "RA_OF_ASC_NODE": 78.5325, "ARG_OF_PERICENTER": 335.6916, "MEAN_ANOMALY": 24.3681, "EPHEMERIS_TYPE": 0, "CLASSIFICATION_TYPE": "U", "NORAD_CAT_ID": 66922, "ELEMENT_SET_NO": 999, "REV_AT_EPOCH": 224, "BSTAR": 0.00012926, "MEAN_MOTION_DOT": 5.3e-07, "MEAN_MOTION_DDOT": 0}, "tle": {"line1": "1 66922U 25285H   25356.23273060  .00000053  00000+0  12926-3 0  9991", "line2": "2 66922  50.0094  78.5325 0006500 335.6916  24.3681 14.03662573  2248"}}, "geometry": {"type": "Point", "coordinates": [-97.2116891806576, -5.91274216012059]}}, {"type": "Feature", "properties": {"norad_id": 66923, "name": "HULIANWANG DIGUI-113", "group": "last-30-days", "lat": -10.39774378342998, "lon": -93.3482363602065, "alt_km": 885.5126495514796, "timestamp": "2025-12-22T09:53:36.146055+00:00", "meta": {"OBJECT_NAME": "HULIANWANG DIGUI-113", "OBJECT_ID": "2025-285J", "EPOCH": "2025-12-22T05:33:27.532224", "MEAN_MOTION": 14.0370044, "ECCENTRICITY": 0.0005116, "INCLINATION": 50.0094, "RA_OF_ASC_NODE": 78.5279, "ARG_OF_PERICENTER": 330.1996, "MEAN_ANOMALY": 29.8616, "EPHEMERIS_TYPE": 0, "CLASSIFICATION_TYPE": "U", "NORAD_CAT_ID": 66923, "ELEMENT_SET_NO": 999, "REV_AT_EPOCH": 224, "BSTAR": 0.00011542, "MEAN_MOTION_DOT": 3.1e-07, "MEAN_MOTION_DDOT": 0}, "tle": {"line1": "1 66923U 25285J   25356.23156866  .00000031  00000+0  11542-3 0  9995", "line2": "2 66923  50.0094  78.5279 0005116 330.1996  29.8616 14.03700440  2241"}}, "geometry": {"type": "Point", "coordinates": [-93.3482363602065, -10.39774378342998]}}, {"type": "Feature", "properties": {"norad_id": 66924, "name": "CZ-8A R/B", "group": "last-30-days", "lat": -24.477755263862534, "lon": -82.55296979368262, "alt_km": 765.5702921043476, "timestamp": "2025-12-22T09:53:36.146067+00:00", "meta": {"OBJECT_NAME": "CZ-8A R/B", "OBJECT_ID": "2025-285K", "EPOCH": "2025-12-21T16:08:52.251072", "MEAN_MOTION": 14.30505087, "ECCENTRICITY": 0.0119259, "INCLINATION": 50.008, "RA_OF_ASC_NODE": 78.1289, "ARG_OF_PERICENTER": 138.2364, "MEAN_ANOMALY": 222.7729, "EPHEMERIS_TYPE": 0, "CLASSIFICATION_TYPE": "U", "NORAD_CAT_ID": 66924, "ELEMENT_SET_NO": 999, "REV_AT_EPOCH": 220, "BSTAR": 4.9813e-05, "MEAN_MOTION_DOT": -2.5e-07, "MEAN_MOTION_DDOT": 0}, "tle": {"line1": "1 66924U 25285K   25355.67282698 -.00000025  00000+0  49813-4 0  9993", "line2": "2 66924  50.0080  78.1289 0119259 138.2364 222.7729 14.30505087  2209"}}, "geometry": {"type": "Point", "coordinates": [-82.55296979368262, -24.477755263862534]}}, {"type": "Feature", "properties": {"norad_id": 66925, "name": "STARLINK-35945", "group": "last-30-days", "lat": -51.86022059769845, "lon": -105.30002538389253, "alt_km": 352.7090696363575, "timestamp": "2025-12-22T09:53:36.146077+00:00", "meta": {"OBJECT_NAME": "STARLINK-35945", "OBJECT_ID": "2025-286A", "EPOCH": "2025-12-22T04:00:01.998720", "MEAN_MOTION": 15.74278044, "ECCENTRICITY": 0.0001278, "INCLINATION": 53.1588, "RA_OF_ASC_NODE": 3.2027, "ARG_OF_PERICENTER": 88.1764, "MEAN_ANOMALY": 218.938, "EPHEMERIS_TYPE": 0, "CLASSIFICATION_TYPE": "U", "NORAD_CAT_ID": 66925, "ELEMENT_SET_NO": 999, "REV_AT_EPOCH": 350, "BSTAR": -0.0018521, "MEAN_MOTION_DOT": -0.00264567, "MEAN_MOTION_DDOT": 0}, "tle": {"line1": "1 66925U 25286A   25356.16668980 -.00264567  00000+0 -18521-2 0  9996", "line2": "2 66925  53.1588   3.2027 0001278  88.1764 218.9380 15.74278044  3507"}}, "geometry": {"type": "Point", "coordinates": [-105.30002538389253, -51.86022059769845]}}, {"type": "Feature", "properties": {"norad_id": 66926, "name": "STARLINK-35942", "group": "last-30-days", "lat": -52.53463594948704, "lon": -99.97468795187665, "alt_km": 355.47472507502334, "timestamp": "2025-12-22T09:53:36.146087+00:00", "meta": {"OBJECT_NAME": "STARLINK-35942", "OBJECT_ID": "2025-286B", "EPOCH": "2025-12-22T04:00:01.998720", "MEAN_MOTION": 15.74225539, "ECCENTRICITY": 9.28e-05, "INCLINATION": 53.1591, "RA_OF_ASC_NODE": 3.1941, "ARG_OF_PERICENTER": 108.2108, "MEAN_ANOMALY": 202.7242, "EPHEMERIS_TYPE": 0, "CLASSIFICATION_TYPE": "U", "NORAD_CAT_ID": 66926, "ELEMENT_SET_NO": 999, "REV_AT_EPOCH": 350, "BSTAR": -0.015714, "MEAN_MOTION_DOT": -0.02032495, "MEAN_MOTION_DDOT": 0}, "tle": {"line1": "1 66926U 25286B   25356.16668980 -.02032495  00000+0 -15714-1 0  9992", "line2": "2 66926  53.1591   3.1941 0000928 108.2108 202.7242 15.74225539  3502"}}, "geometry": {"type": "Point", "coordinates": [-99.97468795187665, -52.53463594948704]}}, {"type": "Feature", "properties": {"norad_id": 66927, "name": "STARLINK-35943", "group": "last-30-days", "lat": -52.81124291739252, "lon": -96.8490780315174, "alt_km": 355.5923885618422, "timestamp": "2025-12-22T09:53:36.146099+00:00", "meta": {"OBJECT_NAME": "STARLINK-35943", "OBJECT_ID": "2025-286C", "EPOCH": "2025-12-22T04:00:01.998720", "MEAN_MOTION": 15.74193324, "ECCENTRICITY": 0.0001109, "INCLINATION": 53.1591, "RA_OF_ASC_NODE": 3.1906, "ARG_OF_PERICENTER": 119.1005, "MEAN_ANOMALY": 193.7732, "EPHEMERIS_TYPE": 0, "CLASSIFICATION_TYPE": "U", "NORAD_CAT_ID": 66927, "ELEMENT_SET_NO": 999, "REV_AT_EPOCH": 350, "BSTAR": -0.015433, "MEAN_MOTION_DOT": -0.01998066, "MEAN_MOTION_DDOT": 0}, "tle": {"line1": "1 66927U 25286C   25356.16668980 -.01998066  00000+0 -15433-1 0  9995", "line2": "2 66927  53.1591   3.1906 0001109 119.1005 193.7732 15.74193324  3502"}}, "geometry": {"type": "Point", "coordinates": [-96.8490780315174, -52.81124291739252]}}, {"type": "Feature", "properties": {"norad_id": 66928, "name": "STARLINK-35944", "group": "last-30-days", "lat": -52.18195009687189, "lon": -103.01314308086552, "alt_km": 355.3544394869523, "timestamp": "2025-12-22T09:53:36.146111+00:00", "meta": {"OBJECT_NAME": "STARLINK-35944", "OBJECT_ID": "2025-286D", "EPOCH": "2025-12-22T04:00:01.998720", "MEAN_MOTION": 15.74249549, "ECCENTRICITY": 7.94e-05, "INCLINATION": 53.159, "RA_OF_ASC_NODE": 3.1983, "ARG_OF_PERICENTER": 114.8828, "MEAN_ANOMALY": 194.1493, "EPHEMERIS_TYPE": 0, "CLASSIFICATION_TYPE": "U", "NORAD_CAT_ID": 66928, "ELEMENT_SET_NO": 999, "REV_AT_EPOCH": 350, "BSTAR": -0.016151, "MEAN_MOTION_DOT": -0.02083873, "MEAN_MOTION_DDOT": 0}, "tle": {"line1": "1 66928U 25286D   25356.16668980 -.02083873  00000+0 -16151-1 0  9996", "line2": "2 66928  53.1590   3.1983 0000794 114.8828 194.1493 15.74249549  3501"}}, "geometry": {"type": "Point", "coordinates": [-103.01314308086552, -52.18195009687189]}}, {"type": "Feature", "properties": {"norad_id": 66929, "name": "STARLINK-36169", "group": "last-30-days", "lat": -53.005514518551045, "lon": -93.6697067009232, "alt_km": 355.52934820141036, "timestamp": "2025-12-22T09:53:36.146122+00:00", "meta": {"OBJECT_NAME": "STARLINK-36169", "OBJECT_ID": "2025-286E", "EPOCH": "2025-12-22T04:00:01.998720", "MEAN_MOTION": 15.74226252, "ECCENTRICITY": 8.17e-05, "INCLINATION": 53.159, "RA_OF_ASC_NODE": 3.1858, "ARG_OF_PERICENTER": 86.5732, "MEAN_ANOMALY": 228.2293, "EPHEMERIS_TYPE": 0, "CLASSIFICATION_TYPE": "U", "NORAD_CAT_ID": 66929, "ELEMENT_SET_NO": 999, "REV_AT_EPOCH": 350, "BSTAR": -0.015968, "MEAN_MOTION_DOT": -0.02061252, "MEAN_MOTION_DDOT": 0}, "tle": {"line1": "1 66929U 25286E   25356.16668980 -.02061252  00000+0 -15968-1 0  9999", "line2": "2 66929  53.1590   3.1858 0000817  86.5732 228.2293 15.74226252  3501"}}, "geometry": {"type": "Point", "coordinates": [-93.6697067009232, -53.005514518551045]}}]}